[{"OBJECT_NAME":"STARLINK-30954","OBJECT_ID":"2023-180F","EPOCH":"2026-03-09T00:16:29.178048","MEAN_MOTION":15.26752569,"ECCENTRICITY":7.925e-5,"INCLINATION":42.9992,"RA_OF_ASC_NODE":56.2501,"ARG_OF_PERICENTER":248.5691,"MEAN_ANOMALY":111.5076,"EPHEMERIS_TYPE":0,"CLASSIFICATION_TYPE":"U","NORAD_CAT_ID":58407,"ELEMENT_SET_NO":999,"REV_AT_EPOCH":12752,"BSTAR":5.8271801e-5,"MEAN_MOTION_DOT":1.304e-5,"MEAN_MOTION_DDOT":0},{"OBJECT_NAME":"SL-3 DEB","OBJECT_ID":"1988-032D","EPOCH":"2026-03-09T21:36:49.536576","MEAN_MOTION":15.21301321,"ECCENTRICITY":0.00302448,"INCLINATION":97.5102,"RA_OF_ASC_NODE":52.3226,"ARG_OF_PERICENTER":221.5268,"MEAN_ANOMALY":138.367,"EPHEMERIS_TYPE":0,"CLASSIFICATION_TYPE":"U","NORAD_CAT_ID":25655,"ELEMENT_SET_NO":999,"REV_AT_EPOCH":5124,"BSTAR":0.00031081119,"MEAN_MOTION_DOT":6.967e-5,"MEAN_MOTION_DDOT":0}]
